NORAD_CAT_ID,OBJECT_NAME,OBJECT_TYPE,EPOCH,MEAN_MOTION,ECCENTRICITY,INCLINATION,RA_OF_ASC_NODE,ARG_OF_PERICENTER,MEAN_ANOMALY,BSTAR,MEAN_MOTION_DOT,MEAN_MOTION_DDOT,TLE_LINE0,TLE_LINE1,TLE_LINE2,SEMIMAJOR_AXIS,PERIOD,APOGEE,PERIGEE,DECAYED
50808.0,STARLINK-3355,PAYLOAD,2023-02-20 10:38:43,15.08850954,0.0001179,53.2155,116.6826,91.3383,268.7744,0.00026612,3.951e-05,0.0,0 STARLINK-3355,1 50808U 22001F   23051.44356441  .00003951  00000-0  26612-3 0  9996,2 50808  53.2155 116.6826 0001179  91.3383 268.7744 15.08850954 62482,6917.847,95.437,540.528,538.896,0.0
50808.0,STARLINK-3355,PAYLOAD,2023-02-21 04:07:58,15.0884569,0.0001182,53.2154,113.4124,93.3375,266.7752,0.00010676,1.412e-05,0.0,0 STARLINK-3355,1 50808U 22001F   23052.17220333  .00001412  00000-0  10676-3 0  9990,2 50808  53.2154 113.4124 0001182  93.3375 266.7752 15.08845690 63843,6917.863,95.437,540.546,538.91,0.0
50808.0,STARLINK-3355,PAYLOAD,2023-02-21 13:40:16,15.08856664,0.0001278,53.216,111.6252,112.0552,248.0576,0.00010952,1.456e-05,0.0,0 STARLINK-3355,1 50808U 22001F   23052.56963517  .00001456  00000-0  10952-3 0  9996,2 50808  53.2160 111.6252 0001278 112.0552 248.0576 15.08856664 62652,6917.829,95.437,540.579,538.81,0.0
50808.0,STARLINK-3355,PAYLOAD,2023-02-22 03:58:45,15.08842235,0.0001314,53.2147,108.951,94.353,265.7613,3.9004e-05,3.33e-06,0.0,0 STARLINK-3355,1 50808U 22001F   23053.16580271  .00000333  00000-0  39004-4 0  9998,2 50808  53.2147 108.9510 0001314  94.3530 265.7613 15.08842235 63997,6917.874,95.437,540.648,538.83,0.0
50808.0,STARLINK-3355,PAYLOAD,2023-02-22 13:31:03,15.08845158,0.0001305,53.2148,107.1662,96.3081,263.806,8.4647e-05,1.06e-05,0.0,0 STARLINK-3355,1 50808U 22001F   23053.56323996  .00001060  00000-0  84647-4 0  9992,2 50808  53.2148 107.1662 0001305  96.3081 263.8060 15.08845158 62801,6917.865,95.437,540.632,538.827,0.0
50808.0,STARLINK-3355,PAYLOAD,2023-02-23 03:49:32,15.08830357,9.25e-05,53.2147,104.4898,92.4073,267.7025,-6.0369e-05,-1.248e-05,0.0,0 STARLINK-3355,1 50808U 22001F   23054.15940897 -.00001248  00000-0 -60369-4 0  9998,2 50808  53.2147 104.4898 0000925  92.4073 267.7025 15.08830357 64144,6917.91,95.438,540.415,539.135,0.0
50808.0,STARLINK-3355,PAYLOAD,2023-02-23 11:46:28,15.08840896,0.0001341,53.2169,103.0045,102.4099,257.7043,5.6993e-05,6.19e-06,0.0,0 STARLINK-3355,1 50808U 22001F   23054.49060508  .00000619  00000-0  56993-4 0  9994,2 50808  53.2169 103.0045 0001341 102.4099 257.7043 15.08840896 64193,6917.878,95.437,540.67,538.815,0.0
50808.0,STARLINK-3355,PAYLOAD,2023-02-23 13:21:51,15.08841687,0.0001308,53.216,102.7062,96.5037,263.6104,7.5826e-05,9.19e-06,0.0,0 STARLINK-3355,1 50808U 22001F   23054.55684466  .00000919  00000-0  75826-4 0  9995,2 50808  53.2160 102.7062 0001308  96.5037 263.6104 15.08841687 62952,6917.875,95.437,540.645,538.835,0.0
50808.0,STARLINK-3355,PAYLOAD,2023-02-23 19:43:23,15.08842343,0.0001257,53.2156,101.5167,86.6256,273.488,2.4843e-05,1.08e-06,0.0,0 STARLINK-3355,1 50808U 22001F   23054.82180381  .00000108  00000-0  24843-4 0  9995,2 50808  53.2156 101.5167 0001257  86.6256 273.4880 15.08842343 62990,6917.873,95.437,540.608,538.869,0.0
50808.0,STARLINK-3355,PAYLOAD,2023-02-24 13:12:38,15.08846315,0.0001308,53.2155,98.2453,81.3535,278.7605,0.00022489,3.294e-05,0.0,0 STARLINK-3355,1 50808U 22001F   23055.55044405  .00003294  00000-0  22489-3 0  9994,2 50808  53.2155  98.2453 0001308  81.3535 278.7605 15.08846315 63108,6917.861,95.437,540.631,538.821,0.0
50808.0,STARLINK-3355,PAYLOAD,2023-02-24 19:34:11,15.08835707,0.0001172,53.2162,97.0552,91.0598,269.0529,1.6576e-05,-2.4e-07,0.0,0 STARLINK-3355,1 50808U 22001F   23055.81540773 -.00000024  00000-0  16576-4 0  9992,2 50808  53.2162  97.0552 0001172  91.0598 269.0529 15.08835707 64392,6917.894,95.438,540.569,538.948,0.0
50808.0,STARLINK-3355,PAYLOAD,2023-02-25 03:31:07,15.088287,0.0001302,53.2156,95.5687,93.7808,266.3333,-0.00015792,-2.799e-05,0.0,0 STARLINK-3355,1 50808U 22001F   23056.14661231 -.00002799  00000-0 -15792-3 0  9992,2 50808  53.2156  95.5687 0001302  93.7808 266.3333 15.08828700 64449,6917.915,95.438,540.681,538.879,0.0
50808.0,STARLINK-3355,PAYLOAD,2023-02-25 13:03:26,15.08832765,0.0001577,53.2152,93.7847,91.6448,268.4725,4.4847e-06,-2.17e-06,0.0,0 STARLINK-3355,1 50808U 22001F   23056.54405442 -.00000217  00000-0  44847-5 0  9993,2 50808  53.2152  93.7847 0001577  91.6448 268.4725 15.08832765 63256,6917.903,95.438,540.858,538.677,0.0
50808.0,STARLINK-3355,PAYLOAD,2023-02-25 19:24:58,15.0883749,0.0001466,53.2162,92.5951,92.0712,268.0448,0.00010113,1.322e-05,0.0,0 STARLINK-3355,1 50808U 22001F   23056.80901391  .00001322  00000-0  10113-3 0  9990,2 50808  53.2162  92.5951 0001466  92.0712 268.0448 15.08837490 64547,6917.888,95.438,540.767,538.739,0.0
50808.0,STARLINK-3355,PAYLOAD,2023-02-26 11:18:49,15.08865244,0.000138,53.2154,89.621,93.9002,266.2148,0.0011096,0.00017428,0.0,0 STARLINK-3355,1 50808U 22001F   23057.47140809  .00017428  00000-0  11096-2 0  9997,2 50808  53.2154  89.6210 0001380  93.9002 266.2148 15.08865244 64646,6917.803,95.436,540.623,538.714,0.0
50808.0,STARLINK-3355,PAYLOAD,2023-02-26 19:15:45,15.08845149,0.0001916,53.2164,88.134,82.936,277.185,0.00034973,5.283e-05,0.0,0 STARLINK-3355,1 50808U 22001F   23057.80261365  .00005283  00000-0  34973-3 0  9991,2 50808  53.2164  88.1340 0001916  82.9360 277.1850 15.08845149 64693,6917.865,95.437,541.055,538.404,0.0
50808.0,STARLINK-3355,PAYLOAD,2023-02-27 11:09:37,15.08855959,0.0001404,53.2148,85.1601,83.5904,276.5248,0.0010915,0.00017133,0.0,0 STARLINK-3355,1 50808U 22001F   23058.46501219  .00017133  00000-0  10915-2 0  9995,2 50808  53.2148  85.1601 0001404  83.5904 276.5248 15.08855959 63542,6917.832,95.437,540.668,538.725,0.0
50808.0,STARLINK-3355,PAYLOAD,2023-02-27 19:06:32,15.08888878,0.0001338,53.2154,83.6737,86.4823,273.6322,0.0025813,0.00041088,0.0,0 STARLINK-3355,1 50808U 22001F   23058.79620851  .00041088  00000-0  25813-2 0  9994,2 50808  53.2154  83.6737 0001338  86.4823 273.6322 15.08888878 64841,6917.731,95.434,540.522,538.67,0.0
50808.0,STARLINK-3355,PAYLOAD,2023-02-28 01:28:05,15.08862049,0.0001426,53.2156,82.4843,93.2175,266.898,0.0014328,0.00022602,0.0,0 STARLINK-3355,1 50808U 22001F   23059.06117073  .00022602  00000-0  14328-2 0  9992,2 50808  53.2156  82.4843 0001426  93.2175 266.8980 15.08862049 64882,6917.813,95.436,540.664,538.692,0.0
50808.0,STARLINK-3355,PAYLOAD,2023-02-28 07:49:37,15.08862623,0.000153,53.2152,81.2971,71.3304,288.7854,0.00079512,0.00012397,0.0,0 STARLINK-3355,1 50808U 22001F   23059.32612739  .00012397  00000-0  79512-3 0  9997,2 50808  53.2152  81.2971 0001530  71.3304 288.7854 15.08862623 64920,6917.811,95.436,540.735,538.618,0.0
50808.0,STARLINK-3355,PAYLOAD,2023-02-28 18:57:19,15.08848772,0.0001431,53.2168,79.2132,99.089,261.0264,9.7239e-05,1.26e-05,0.0,0 STARLINK-3355,1 50808U 22001F   23059.78980600  .00001260  00000-0  97239-4 0  9996,2 50808  53.2168  79.2132 0001431  99.0890 261.0264 15.08848772 63747,6917.854,95.437,540.709,538.729,0.0
50808.0,STARLINK-3355,PAYLOAD,2023-03-01 07:40:25,15.08797489,0.000145,53.2166,76.8351,107.1777,252.9374,0.00051495,7.908e-05,0.0,0 STARLINK-3355,1 50808U 22001F   23060.31974138  .00007908  00000-0  51495-3 0  9994,2 50808  53.2166  76.8351 0001450 107.1777 252.9374 15.08797489 65074,6918.01,95.44,540.878,538.872,0.0
50808.0,STARLINK-3355,PAYLOAD,2023-03-01 12:26:35,15.08808303,0.000209,53.2167,75.94,134.1646,225.9518,0.00013642,1.882e-05,0.0,0 STARLINK-3355,1 50808U 22001F   23060.51846324  .00001882  00000-0  13642-3 0  9998,2 50808  53.2167  75.9400 0002090 134.1646 225.9518 15.08808303 63858,6917.977,95.44,541.288,538.396,0.0
50808.0,STARLINK-3355,PAYLOAD,2023-03-02 01:09:40,15.08833976,0.0001461,53.216,73.5633,123.1625,236.9507,0.0006832,0.000106,0.0,0 STARLINK-3355,1 50808U 22001F   23061.04838564  .00010600  00000-0  68320-3 0  9995,2 50808  53.2160  73.5633 0001461 123.1625 236.9507 15.08833976 65181,6917.899,95.438,540.775,538.753,0.0
50808.0,STARLINK-3355,PAYLOAD,2023-03-02 17:03:31,15.08855443,0.0001541,53.2177,70.588,101.7394,258.3771,0.00056434,8.709e-05,0.0,0 STARLINK-3355,1 50808U 22001F   23061.71078380  .00008709  00000-0  56434-3 0  9991,2 50808  53.2177  70.5880 0001541 101.7394 258.3771 15.08855443 64031,6917.833,95.437,540.764,538.632,0.0
50808.0,STARLINK-3355,PAYLOAD,2023-03-03 05:46:36,15.08852906,0.0001706,53.2177,68.2101,117.0429,243.0738,0.0004798,7.359e-05,0.0,0 STARLINK-3355,1 50808U 22001F   23062.24070050  .00007359  00000-0  47980-3 0  9992,2 50808  53.2177  68.2101 0001706 117.0429 243.0738 15.08852906 65365,6917.841,95.437,540.886,538.526,0.0
50808.0,STARLINK-3355,PAYLOAD,2023-03-03 16:54:18,15.08859174,0.0001299,53.2165,66.1324,97.5657,262.5483,0.00037606,5.705e-05,0.0,0 STARLINK-3355,1 50808U 22001F   23062.70437534  .00005705  00000-0  37606-3 0  9994,2 50808  53.2165  66.1324 0001299  97.5657 262.5483 15.08859174 64184,6917.822,95.436,540.585,538.788,0.0
50808.0,STARLINK-3355,PAYLOAD,2023-03-04 10:23:32,15.08856352,0.0001445,53.2176,62.8559,95.7558,264.3599,0.00018552,2.667e-05,0.0,0 STARLINK-3355,1 50808U 22001F   23063.43301031  .00002667  00000-0  18552-3 0  9990,2 50808  53.2176  62.8559 0001445  95.7558 264.3599 15.08856352 65546,6917.83,95.437,540.695,538.696,0.0
50808.0,STARLINK-3355,PAYLOAD,2023-03-04 16:45:05,15.08837877,0.0001731,53.218,61.6689,84.6615,275.4575,-0.00013155,-2.381e-05,0.0,0 STARLINK-3355,1 50808U 22001F   23063.69797802 -.00002381  00000-0 -13155-3 0  9992,2 50808  53.2180  61.6689 0001731  84.6615 275.4575 15.08837877 65583,6917.887,95.438,540.949,538.554,0.0
50808.0,STARLINK-3355,PAYLOAD,2023-03-05 08:38:58,15.08815509,0.000183,53.2176,58.6981,86.6062,273.514,-0.00036459,-6.082e-05,0.0,0 STARLINK-3355,1 50808U 22001F   23064.36039439 -.00006082  00000-0 -36459-3 0  9996,2 50808  53.2176  58.6981 0001830  86.6062 273.5140 15.08815509 65683,6917.955,95.439,541.086,538.554,0.0
